STARLINK-36912          
1 67961U 26038A   26067.41668981 -.01623186  73642-3 -50347-2 0  9997
2 67961  97.2745  77.5984 0001228 106.3116 206.3259 15.91735758  2994
STARLINK-36881          
1 67962U 26038B   26067.41668981 -.01609558  72560-3 -49708-2 0  9992
2 67962  97.2744  77.5995 0001223 105.7990 209.5202 15.91818591  2994
STARLINK-36357          
1 67963U 26038C   26067.41668981 -.01608437  72658-3 -49006-2 0  9997
2 67963  97.2739  77.6027 0001182 105.0460 217.6110 15.92082312  2998
STARLINK-36349          
1 67964U 26038D   26067.41668981 -.01606453  72396-3 -49276-2 0  9992
2 67964  97.2737  77.6007 0001255 102.0502 216.9326 15.91950907  2994
STARLINK-36806          
1 67965U 26038E   26067.41668981 -.01613340  73184-3 -48764-2 0  9993
2 67965  97.2732  77.6043 0001158 104.5935 222.3295 15.92238402  2995
STARLINK-36820          
1 67966U 26038F   26067.41668981 -.01591027  71402-3 -47791-2 0  9991
2 67966  97.2732  77.6060 0001227 107.4758 223.0152 15.92356065  2993
STARLINK-36819          
1 67967U 26038G   26067.41668981 -.01611137  73195-3 -48033-2 0  9998
2 67967  97.2730  77.6075 0001218 103.3368 230.9979 15.92504713  2999
STARLINK-36812          
1 67968U 26038H   26067.41668981 -.01609330  73128-3 -47695-2 0  9990
2 67968  97.2724  77.6083 0001231 106.2410 231.3732 15.92619272  2996
STARLINK-36709          
1 67969U 26038J   26067.41668981 -.01592081  71882-3 -46507-2 0  9991
2 67969  97.2725  77.6121 0001124  94.3964 251.0897 15.92896390  2992
STARLINK-36319          
1 67970U 26038K   26067.41668981 -.01592057  71774-3 -46856-2 0  9993
2 67970  97.2723  77.6100 0001133  95.8470 245.6731 15.92751487  2967
STARLINK-36710          
1 67971U 26038L   26067.41668981 -.01589399  71785-3 -46009-2 0  9991
2 67971  97.2718  77.6141 0001082 101.0144 249.3045 15.93070842  2990
STARLINK-36894          
1 67972U 26038M   26067.41668981 -.01589322  71884-3 -45663-2 0  9993
2 67972  97.2715  77.6156 0001148  87.9669 266.3206 15.93214858  2996
