CCSDS_OMM_VERS = 2.0
CREATION_DATE  = 
ORIGINATOR     = 

OBJECT_NAME    = STARLINK-36912
OBJECT_ID      = 2026-038A
CENTER_NAME    = EARTH
REF_FRAME      = TEME
TIME_SYSTEM    = UTC
MEAN_ELEMENT_THEORY = SGP/SGP4

EPOCH          = 2026-03-08T10:00:01.999584
MEAN_MOTION    = 15.91735758
ECCENTRICITY   = .0001228
INCLINATION    = 97.2745
RA_OF_ASC_NODE = 77.5984
ARG_OF_PERICENTER = 106.3116
MEAN_ANOMALY   = 206.3259

EPHEMERIS_TYPE = 0
CLASSIFICATION_TYPE = U
NORAD_CAT_ID   = 67961
ELEMENT_SET_NO = 999
REV_AT_EPOCH   = 299
BSTAR          = -.50347E-2
MEAN_MOTION_DOT = -.1623186E-1
MEAN_MOTION_DDOT = .73642E-3

CCSDS_OMM_VERS = 2.0
CREATION_DATE  = 
ORIGINATOR     = 

OBJECT_NAME    = STARLINK-36881
OBJECT_ID      = 2026-038B
CENTER_NAME    = EARTH
REF_FRAME      = TEME
TIME_SYSTEM    = UTC
MEAN_ELEMENT_THEORY = SGP/SGP4

EPOCH          = 2026-03-08T10:00:01.999584
MEAN_MOTION    = 15.91818591
ECCENTRICITY   = .0001223
INCLINATION    = 97.2744
RA_OF_ASC_NODE = 77.5995
ARG_OF_PERICENTER = 105.7990
MEAN_ANOMALY   = 209.5202

EPHEMERIS_TYPE = 0
CLASSIFICATION_TYPE = U
NORAD_CAT_ID   = 67962
ELEMENT_SET_NO = 999
REV_AT_EPOCH   = 299
BSTAR          = -.49708E-2
MEAN_MOTION_DOT = -.1609558E-1
MEAN_MOTION_DDOT = .7256E-3

CCSDS_OMM_VERS = 2.0
CREATION_DATE  = 
ORIGINATOR     = 

OBJECT_NAME    = STARLINK-36357
OBJECT_ID      = 2026-038C
CENTER_NAME    = EARTH
REF_FRAME      = TEME
TIME_SYSTEM    = UTC
MEAN_ELEMENT_THEORY = SGP/SGP4

EPOCH          = 2026-03-08T10:00:01.999584
MEAN_MOTION    = 15.92082312
ECCENTRICITY   = .0001182
INCLINATION    = 97.2739
RA_OF_ASC_NODE = 77.6027
ARG_OF_PERICENTER = 105.0460
MEAN_ANOMALY   = 217.6110

EPHEMERIS_TYPE = 0
CLASSIFICATION_TYPE = U
NORAD_CAT_ID   = 67963
ELEMENT_SET_NO = 999
REV_AT_EPOCH   = 299
BSTAR          = -.49006E-2
MEAN_MOTION_DOT = -.1608437E-1
MEAN_MOTION_DDOT = .72658E-3

CCSDS_OMM_VERS = 2.0
CREATION_DATE  = 
ORIGINATOR     = 

OBJECT_NAME    = STARLINK-36349
OBJECT_ID      = 2026-038D
CENTER_NAME    = EARTH
REF_FRAME      = TEME
TIME_SYSTEM    = UTC
MEAN_ELEMENT_THEORY = SGP/SGP4

EPOCH          = 2026-03-08T10:00:01.999584
MEAN_MOTION    = 15.91950907
ECCENTRICITY   = .0001255
INCLINATION    = 97.2737
RA_OF_ASC_NODE = 77.6007
ARG_OF_PERICENTER = 102.0502
MEAN_ANOMALY   = 216.9326

EPHEMERIS_TYPE = 0
CLASSIFICATION_TYPE = U
NORAD_CAT_ID   = 67964
ELEMENT_SET_NO = 999
REV_AT_EPOCH   = 299
BSTAR          = -.49276E-2
MEAN_MOTION_DOT = -.1606453E-1
MEAN_MOTION_DDOT = .72396E-3

CCSDS_OMM_VERS = 2.0
CREATION_DATE  = 
ORIGINATOR     = 

OBJECT_NAME    = STARLINK-36806
OBJECT_ID      = 2026-038E
CENTER_NAME    = EARTH
REF_FRAME      = TEME
TIME_SYSTEM    = UTC
MEAN_ELEMENT_THEORY = SGP/SGP4

EPOCH          = 2026-03-08T10:00:01.999584
MEAN_MOTION    = 15.92238402
ECCENTRICITY   = .0001158
INCLINATION    = 97.2732
RA_OF_ASC_NODE = 77.6043
ARG_OF_PERICENTER = 104.5935
MEAN_ANOMALY   = 222.3295

EPHEMERIS_TYPE = 0
CLASSIFICATION_TYPE = U
NORAD_CAT_ID   = 67965
ELEMENT_SET_NO = 999
REV_AT_EPOCH   = 299
BSTAR          = -.48764E-2
MEAN_MOTION_DOT = -.161334E-1
MEAN_MOTION_DDOT = .73184E-3

CCSDS_OMM_VERS = 2.0
CREATION_DATE  = 
ORIGINATOR     = 

OBJECT_NAME    = STARLINK-36820
OBJECT_ID      = 2026-038F
CENTER_NAME    = EARTH
REF_FRAME      = TEME
TIME_SYSTEM    = UTC
MEAN_ELEMENT_THEORY = SGP/SGP4

EPOCH          = 2026-03-08T10:00:01.999584
MEAN_MOTION    = 15.92356065
ECCENTRICITY   = .0001227
INCLINATION    = 97.2732
RA_OF_ASC_NODE = 77.6060
ARG_OF_PERICENTER = 107.4758
MEAN_ANOMALY   = 223.0152

EPHEMERIS_TYPE = 0
CLASSIFICATION_TYPE = U
NORAD_CAT_ID   = 67966
ELEMENT_SET_NO = 999
REV_AT_EPOCH   = 299
BSTAR          = -.47791E-2
MEAN_MOTION_DOT = -.1591027E-1
MEAN_MOTION_DDOT = .71402E-3

CCSDS_OMM_VERS = 2.0
CREATION_DATE  = 
ORIGINATOR     = 

OBJECT_NAME    = STARLINK-36819
OBJECT_ID      = 2026-038G
CENTER_NAME    = EARTH
REF_FRAME      = TEME
TIME_SYSTEM    = UTC
MEAN_ELEMENT_THEORY = SGP/SGP4

EPOCH          = 2026-03-08T10:00:01.999584
MEAN_MOTION    = 15.92504713
ECCENTRICITY   = .0001218
INCLINATION    = 97.2730
RA_OF_ASC_NODE = 77.6075
ARG_OF_PERICENTER = 103.3368
MEAN_ANOMALY   = 230.9979

EPHEMERIS_TYPE = 0
CLASSIFICATION_TYPE = U
NORAD_CAT_ID   = 67967
ELEMENT_SET_NO = 999
REV_AT_EPOCH   = 299
BSTAR          = -.48033E-2
MEAN_MOTION_DOT = -.1611137E-1
MEAN_MOTION_DDOT = .73195E-3

CCSDS_OMM_VERS = 2.0
CREATION_DATE  = 
ORIGINATOR     = 

OBJECT_NAME    = STARLINK-36812
OBJECT_ID      = 2026-038H
CENTER_NAME    = EARTH
REF_FRAME      = TEME
TIME_SYSTEM    = UTC
MEAN_ELEMENT_THEORY = SGP/SGP4

EPOCH          = 2026-03-08T10:00:01.999584
MEAN_MOTION    = 15.92619272
ECCENTRICITY   = .0001231
INCLINATION    = 97.2724
RA_OF_ASC_NODE = 77.6083
ARG_OF_PERICENTER = 106.2410
MEAN_ANOMALY   = 231.3732

EPHEMERIS_TYPE = 0
CLASSIFICATION_TYPE = U
NORAD_CAT_ID   = 67968
ELEMENT_SET_NO = 999
REV_AT_EPOCH   = 299
BSTAR          = -.47695E-2
MEAN_MOTION_DOT = -.160933E-1
MEAN_MOTION_DDOT = .73128E-3

CCSDS_OMM_VERS = 2.0
CREATION_DATE  = 
ORIGINATOR     = 

OBJECT_NAME    = STARLINK-36709
OBJECT_ID      = 2026-038J
CENTER_NAME    = EARTH
REF_FRAME      = TEME
TIME_SYSTEM    = UTC
MEAN_ELEMENT_THEORY = SGP/SGP4

EPOCH          = 2026-03-08T10:00:01.999584
MEAN_MOTION    = 15.92896390
ECCENTRICITY   = .0001124
INCLINATION    = 97.2725
RA_OF_ASC_NODE = 77.6121
ARG_OF_PERICENTER = 94.3964
MEAN_ANOMALY   = 251.0897

EPHEMERIS_TYPE = 0
CLASSIFICATION_TYPE = U
NORAD_CAT_ID   = 67969
ELEMENT_SET_NO = 999
REV_AT_EPOCH   = 299
BSTAR          = -.46507E-2
MEAN_MOTION_DOT = -.1592081E-1
MEAN_MOTION_DDOT = .71882E-3

CCSDS_OMM_VERS = 2.0
CREATION_DATE  = 
ORIGINATOR     = 

OBJECT_NAME    = STARLINK-36319
OBJECT_ID      = 2026-038K
CENTER_NAME    = EARTH
REF_FRAME      = TEME
TIME_SYSTEM    = UTC
MEAN_ELEMENT_THEORY = SGP/SGP4

EPOCH          = 2026-03-08T10:00:01.999584
MEAN_MOTION    = 15.92751487
ECCENTRICITY   = .0001133
INCLINATION    = 97.2723
RA_OF_ASC_NODE = 77.6100
ARG_OF_PERICENTER = 95.8470
MEAN_ANOMALY   = 245.6731

EPHEMERIS_TYPE = 0
CLASSIFICATION_TYPE = U
NORAD_CAT_ID   = 67970
ELEMENT_SET_NO = 999
REV_AT_EPOCH   = 296
BSTAR          = -.46856E-2
MEAN_MOTION_DOT = -.1592057E-1
MEAN_MOTION_DDOT = .71774E-3

CCSDS_OMM_VERS = 2.0
CREATION_DATE  = 
ORIGINATOR     = 

OBJECT_NAME    = STARLINK-36710
OBJECT_ID      = 2026-038L
CENTER_NAME    = EARTH
REF_FRAME      = TEME
TIME_SYSTEM    = UTC
MEAN_ELEMENT_THEORY = SGP/SGP4

EPOCH          = 2026-03-08T10:00:01.999584
MEAN_MOTION    = 15.93070842
ECCENTRICITY   = .0001082
INCLINATION    = 97.2718
RA_OF_ASC_NODE = 77.6141
ARG_OF_PERICENTER = 101.0144
MEAN_ANOMALY   = 249.3045

EPHEMERIS_TYPE = 0
CLASSIFICATION_TYPE = U
NORAD_CAT_ID   = 67971
ELEMENT_SET_NO = 999
REV_AT_EPOCH   = 299
BSTAR          = -.46009E-2
MEAN_MOTION_DOT = -.1589399E-1
MEAN_MOTION_DDOT = .71785E-3

CCSDS_OMM_VERS = 2.0
CREATION_DATE  = 
ORIGINATOR     = 

OBJECT_NAME    = STARLINK-36894
OBJECT_ID      = 2026-038M
CENTER_NAME    = EARTH
REF_FRAME      = TEME
TIME_SYSTEM    = UTC
MEAN_ELEMENT_THEORY = SGP/SGP4

EPOCH          = 2026-03-08T10:00:01.999584
MEAN_MOTION    = 15.93214858
ECCENTRICITY   = .0001148
INCLINATION    = 97.2715
RA_OF_ASC_NODE = 77.6156
ARG_OF_PERICENTER = 87.9669
MEAN_ANOMALY   = 266.3206

EPHEMERIS_TYPE = 0
CLASSIFICATION_TYPE = U
NORAD_CAT_ID   = 67972
ELEMENT_SET_NO = 999
REV_AT_EPOCH   = 299
BSTAR          = -.45663E-2
MEAN_MOTION_DOT = -.1589322E-1
MEAN_MOTION_DDOT = .71884E-3

